<?xml version="1.0" encoding="UTF-8"?>
<ndm xmlns:xsi="http://www.w3.org/2001/XMLSchema-instance" xsi:noNamespaceSchemaLocation="https://sanaregistry.org/r/ndmxml_unqualified/ndmxml-2.0.0-master-2.0.xsd">
<omm id="CCSDS_OMM_VERS" version="2.0">
<header><CREATION_DATE/><ORIGINATOR/></header><body><segment><metadata><OBJECT_NAME>ORBCOMM FM24</OBJECT_NAME><OBJECT_ID>1998-053D</OBJECT_ID><CENTER_NAME>EARTH</CENTER_NAME><REF_FRAME>TEME</REF_FRAME><TIME_SYSTEM>UTC</TIME_SYSTEM><MEAN_ELEMENT_THEORY>SGP4</MEAN_ELEMENT_THEORY></metadata><data><meanElements><EPOCH>2024-04-25T22:32:00.396672</EPOCH><MEAN_MOTION>14.35582997</MEAN_MOTION><ECCENTRICITY>.0002994</ECCENTRICITY><INCLINATION>45.0076</INCLINATION><RA_OF_ASC_NODE>83.6114</RA_OF_ASC_NODE><ARG_OF_PERICENTER>300.6862</ARG_OF_PERICENTER><MEAN_ANOMALY>59.3690</MEAN_ANOMALY></meanElements><tleParameters><EPHEMERIS_TYPE>0</EPHEMERIS_TYPE><CLASSIFICATION_TYPE>U</CLASSIFICATION_TYPE><NORAD_CAT_ID>25478</NORAD_CAT_ID><ELEMENT_SET_NO>999</ELEMENT_SET_NO><REV_AT_EPOCH>33743</REV_AT_EPOCH><BSTAR>.15365E-2</BSTAR><MEAN_MOTION_DOT>.4329E-4</MEAN_MOTION_DOT><MEAN_MOTION_DDOT>0</MEAN_MOTION_DDOT></tleParameters></data></segment></body></omm>
<omm id="CCSDS_OMM_VERS" version="2.0">
<header><CREATION_DATE/><ORIGINATOR/></header><body><segment><metadata><OBJECT_NAME>ORBCOMM FM25</OBJECT_NAME><OBJECT_ID>1998-053E</OBJECT_ID><CENTER_NAME>EARTH</CENTER_NAME><REF_FRAME>TEME</REF_FRAME><TIME_SYSTEM>UTC</TIME_SYSTEM><MEAN_ELEMENT_THEORY>SGP4</MEAN_ELEMENT_THEORY></metadata><data><meanElements><EPOCH>2024-04-25T06:41:13.655328</EPOCH><MEAN_MOTION>14.35553984</MEAN_MOTION><ECCENTRICITY>.000548</ECCENTRICITY><INCLINATION>45.0063</INCLINATION><RA_OF_ASC_NODE>84.9722</RA_OF_ASC_NODE><ARG_OF_PERICENTER>311.3518</ARG_OF_PERICENTER><MEAN_ANOMALY>48.6858</MEAN_ANOMALY></meanElements><tleParameters><EPHEMERIS_TYPE>0</EPHEMERIS_TYPE><CLASSIFICATION_TYPE>U</CLASSIFICATION_TYPE><NORAD_CAT_ID>25479</NORAD_CAT_ID><ELEMENT_SET_NO>999</ELEMENT_SET_NO><REV_AT_EPOCH>33763</REV_AT_EPOCH><BSTAR>.12251E-2</BSTAR><MEAN_MOTION_DOT>.3421E-4</MEAN_MOTION_DOT><MEAN_MOTION_DDOT>0</MEAN_MOTION_DDOT></tleParameters></data></segment></body></omm>
<omm id="CCSDS_OMM_VERS" version="2.0">
<header><CREATION_DATE/><ORIGINATOR/></header><body><segment><metadata><OBJECT_NAME>ORBCOMM FM26</OBJECT_NAME><OBJECT_ID>1998-053F</OBJECT_ID><CENTER_NAME>EARTH</CENTER_NAME><REF_FRAME>TEME</REF_FRAME><TIME_SYSTEM>UTC</TIME_SYSTEM><MEAN_ELEMENT_THEORY>SGP4</MEAN_ELEMENT_THEORY></metadata><data><meanElements><EPOCH>2024-04-25T06:42:11.692800</EPOCH><MEAN_MOTION>14.35013576</MEAN_MOTION><ECCENTRICITY>.0007381</ECCENTRICITY><INCLINATION>45.0065</INCLINATION><RA_OF_ASC_NODE>79.0236</RA_OF_ASC_NODE><ARG_OF_PERICENTER>328.9624</ARG_OF_PERICENTER><MEAN_ANOMALY>31.0787</MEAN_ANOMALY></meanElements><tleParameters><EPHEMERIS_TYPE>0</EPHEMERIS_TYPE><CLASSIFICATION_TYPE>U</CLASSIFICATION_TYPE><NORAD_CAT_ID>25480</NORAD_CAT_ID><ELEMENT_SET_NO>999</ELEMENT_SET_NO><REV_AT_EPOCH>33757</REV_AT_EPOCH><BSTAR>.12098E-2</BSTAR><MEAN_MOTION_DOT>.3339E-4</MEAN_MOTION_DOT><MEAN_MOTION_DDOT>0</MEAN_MOTION_DDOT></tleParameters></data></segment></body></omm>
<omm id="CCSDS_OMM_VERS" version="2.0">
<header><CREATION_DATE/><ORIGINATOR/></header><body><segment><metadata><OBJECT_NAME>ORBCOMM FM27</OBJECT_NAME><OBJECT_ID>1998-053G</OBJECT_ID><CENTER_NAME>EARTH</CENTER_NAME><REF_FRAME>TEME</REF_FRAME><TIME_SYSTEM>UTC</TIME_SYSTEM><MEAN_ELEMENT_THEORY>SGP4</MEAN_ELEMENT_THEORY></metadata><data><meanElements><EPOCH>2024-04-25T08:04:06.738240</EPOCH><MEAN_MOTION>14.35539999</MEAN_MOTION><ECCENTRICITY>.0001574</ECCENTRICITY><INCLINATION>45.0047</INCLINATION><RA_OF_ASC_NODE>84.9655</RA_OF_ASC_NODE><ARG_OF_PERICENTER>311.7230</ARG_OF_PERICENTER><MEAN_ANOMALY>48.3483</MEAN_ANOMALY></meanElements><tleParameters><EPHEMERIS_TYPE>0</EPHEMERIS_TYPE><CLASSIFICATION_TYPE>U</CLASSIFICATION_TYPE><NORAD_CAT_ID>25481</NORAD_CAT_ID><ELEMENT_SET_NO>999</ELEMENT_SET_NO><REV_AT_EPOCH>33757</REV_AT_EPOCH><BSTAR>.12434E-2</BSTAR><MEAN_MOTION_DOT>.3472E-4</MEAN_MOTION_DOT><MEAN_MOTION_DDOT>0</MEAN_MOTION_DDOT></tleParameters></data></segment></body></omm>
<omm id="CCSDS_OMM_VERS" version="2.0">
<header><CREATION_DATE/><ORIGINATOR/></header><body><segment><metadata><OBJECT_NAME>ORBCOMM FM28</OBJECT_NAME><OBJECT_ID>1998-053H</OBJECT_ID><CENTER_NAME>EARTH</CENTER_NAME><REF_FRAME>TEME</REF_FRAME><TIME_SYSTEM>UTC</TIME_SYSTEM><MEAN_ELEMENT_THEORY>SGP4</MEAN_ELEMENT_THEORY></metadata><data><meanElements><EPOCH>2024-04-25T19:32:39.802848</EPOCH><MEAN_MOTION>14.35991030</MEAN_MOTION><ECCENTRICITY>.0004731</ECCENTRICITY><INCLINATION>45.0070</INCLINATION><RA_OF_ASC_NODE>21.2249</RA_OF_ASC_NODE><ARG_OF_PERICENTER>3.0951</ARG_OF_PERICENTER><MEAN_ANOMALY>356.9925</MEAN_ANOMALY></meanElements><tleParameters><EPHEMERIS_TYPE>0</EPHEMERIS_TYPE><CLASSIFICATION_TYPE>U</CLASSIFICATION_TYPE><NORAD_CAT_ID>25482</NORAD_CAT_ID><ELEMENT_SET_NO>999</ELEMENT_SET_NO><REV_AT_EPOCH>33831</REV_AT_EPOCH><BSTAR>.13318E-2</BSTAR><MEAN_MOTION_DOT>.3765E-4</MEAN_MOTION_DOT><MEAN_MOTION_DDOT>0</MEAN_MOTION_DDOT></tleParameters></data></segment></body></omm>
<omm id="CCSDS_OMM_VERS" version="2.0">
<header><CREATION_DATE/><ORIGINATOR/></header><body><segment><metadata><OBJECT_NAME>ORBCOMM FM30</OBJECT_NAME><OBJECT_ID>1999-065A</OBJECT_ID><CENTER_NAME>EARTH</CENTER_NAME><REF_FRAME>TEME</REF_FRAME><TIME_SYSTEM>UTC</TIME_SYSTEM><MEAN_ELEMENT_THEORY>SGP4</MEAN_ELEMENT_THEORY></metadata><data><meanElements><EPOCH>2024-04-25T14:10:40.867392</EPOCH><MEAN_MOTION>14.35160894</MEAN_MOTION><ECCENTRICITY>.0005263</ECCENTRICITY><INCLINATION>45.0310</INCLINATION><RA_OF_ASC_NODE>263.0705</RA_OF_ASC_NODE><ARG_OF_PERICENTER>86.5619</ARG_OF_PERICENTER><MEAN_ANOMALY>273.5830</MEAN_ANOMALY></meanElements><tleParameters><EPHEMERIS_TYPE>0</EPHEMERIS_TYPE><CLASSIFICATION_TYPE>U</CLASSIFICATION_TYPE><NORAD_CAT_ID>25980</NORAD_CAT_ID><ELEMENT_SET_NO>999</ELEMENT_SET_NO><REV_AT_EPOCH>27494</REV_AT_EPOCH><BSTAR>.12649E-2</BSTAR><MEAN_MOTION_DOT>.3507E-4</MEAN_MOTION_DOT><MEAN_MOTION_DDOT>0</MEAN_MOTION_DDOT></tleParameters></data></segment></body></omm>
<omm id="CCSDS_OMM_VERS" version="2.0">
<header><CREATION_DATE/><ORIGINATOR/></header><body><segment><metadata><OBJECT_NAME>ORBCOMM FM31</OBJECT_NAME><OBJECT_ID>1999-065B</OBJECT_ID><CENTER_NAME>EARTH</CENTER_NAME><REF_FRAME>TEME</REF_FRAME><TIME_SYSTEM>UTC</TIME_SYSTEM><MEAN_ELEMENT_THEORY>SGP4</MEAN_ELEMENT_THEORY></metadata><data><meanElements><EPOCH>2024-04-25T11:40:50.018592</EPOCH><MEAN_MOTION>14.35162090</MEAN_MOTION><ECCENTRICITY>.0003057</ECCENTRICITY><INCLINATION>45.0222</INCLINATION><RA_OF_ASC_NODE>257.2637</RA_OF_ASC_NODE><ARG_OF_PERICENTER>125.3132</ARG_OF_PERICENTER><MEAN_ANOMALY>234.8002</MEAN_ANOMALY></meanElements><tleParameters><EPHEMERIS_TYPE>0</EPHEMERIS_TYPE><CLASSIFICATION_TYPE>U</CLASSIFICATION_TYPE><NORAD_CAT_ID>25981</NORAD_CAT_ID><ELEMENT_SET_NO>999</ELEMENT_SET_NO><REV_AT_EPOCH>27492</REV_AT_EPOCH><BSTAR>.11739E-2</BSTAR><MEAN_MOTION_DOT>.3245E-4</MEAN_MOTION_DOT><MEAN_MOTION_DDOT>0</MEAN_MOTION_DDOT></tleParameters></data></segment></body></omm>
<omm id="CCSDS_OMM_VERS" version="2.0">
<header><CREATION_DATE/><ORIGINATOR/></header><body><segment><metadata><OBJECT_NAME>ORBCOMM FM32</OBJECT_NAME><OBJECT_ID>1999-065C</OBJECT_ID><CENTER_NAME>EARTH</CENTER_NAME><REF_FRAME>TEME</REF_FRAME><TIME_SYSTEM>UTC</TIME_SYSTEM><MEAN_ELEMENT_THEORY>SGP4</MEAN_ELEMENT_THEORY></metadata><data><meanElements><EPOCH>2024-04-25T12:39:00.973440</EPOCH><MEAN_MOTION>14.34136268</MEAN_MOTION><ECCENTRICITY>.0005611</ECCENTRICITY><INCLINATION>45.0150</INCLINATION><RA_OF_ASC_NODE>270.7703</RA_OF_ASC_NODE><ARG_OF_PERICENTER>115.9891</ARG_OF_PERICENTER><MEAN_ANOMALY>244.1535</MEAN_ANOMALY></meanElements><tleParameters><EPHEMERIS_TYPE>0</EPHEMERIS_TYPE><CLASSIFICATION_TYPE>U</CLASSIFICATION_TYPE><NORAD_CAT_ID>25982</NORAD_CAT_ID><ELEMENT_SET_NO>999</ELEMENT_SET_NO><REV_AT_EPOCH>27459</REV_AT_EPOCH><BSTAR>.12401E-2</BSTAR><MEAN_MOTION_DOT>.3364E-4</MEAN_MOTION_DOT><MEAN_MOTION_DDOT>0</MEAN_MOTION_DDOT></tleParameters></data></segment></body></omm>

</ndm>
