ORBCOMM FM24            
1 25478U 98053D   24116.93889348  .00004329  00000+0  15365-2 0  9996
2 25478  45.0076  83.6114 0002994 300.6862  59.3690 14.35582997337437
ORBCOMM FM25            
1 25479U 98053E   24116.27863027  .00003421  00000+0  12251-2 0  9993
2 25479  45.0063  84.9722 0005480 311.3518  48.6858 14.35553984337636
ORBCOMM FM26            
1 25480U 98053F   24116.27930200  .00003339  00000+0  12098-2 0  9990
2 25480  45.0065  79.0236 0007381 328.9624  31.0787 14.35013576337577
ORBCOMM FM27            
1 25481U 98053G   24116.33618910  .00003472  00000+0  12434-2 0  9991
2 25481  45.0047  84.9655 0001574 311.7230  48.3483 14.35539999337575
ORBCOMM FM28            
1 25482U 98053H   24116.81434957  .00003765  00000+0  13318-2 0  9999
2 25482  45.0070  21.2249 0004731   3.0951 356.9925 14.35991030338314
ORBCOMM FM30            
1 25980U 99065A   24116.59075078  .00003507  00000+0  12649-2 0  9996
2 25980  45.0310 263.0705 0005263  86.5619 273.5830 14.35160894274948
ORBCOMM FM31            
1 25981U 99065B   24116.48669003  .00003245  00000+0  11739-2 0  9990
2 25981  45.0222 257.2637 0003057 125.3132 234.8002 14.35162090274920
ORBCOMM FM32            
1 25982U 99065C   24116.52709460  .00003364  00000+0  12401-2 0  9997
2 25982  45.0150 270.7703 0005611 115.9891 244.1535 14.34136268274595
